TYVAK-0173              
1 48892U 21059P   26203.17409066  .00001196  00000+0  15479-3 0  9999
2 48892  96.0066 270.8331 0007122 269.6597  90.3805 14.81985503273427
MANDRAKE 2 ABLE         
1 48907U 21059AE  26203.10146650  .00023195  00000+0  33098-3 0  9996
2 48907  97.7034  35.5843 0004317 204.3486 155.7565 15.56287480282552
MANDRAKE 2 BAKER        
1 48908U 21059AF  26203.82372790  .00031772  00000+0  37486-3 0  9997
2 48908  97.6996  39.4932 0003403 188.7404 171.3794 15.61293578282853
PACE-1                  
1 48909U 21059AG  26203.10736590  .00143209  00000+0  56003-3 0  9996
2 48909  97.6729  45.3679 0003441 166.6838 193.4524 15.86629202283323
YAM-3                   
1 48915U 21059AN  26203.85705092  .00012892  00000+0  23767-3 0  9992
2 48915  97.7000  33.1653 0004431 206.4019 153.7005 15.49274712282518
FARADAY_PHOENIX         
1 48924U 21059AX  26203.09366712  .00333392  43038-4  11395-2 0  9997
2 48924  97.6756  45.2949 0005591 184.0763 176.0465 15.89697728283184
DEMO8 (TENZING)         
1 48951U 21059CA  26203.81228172  .00021354  00000+0  30509-3 0  9992
2 48951  97.7018  39.9787 0006298 201.2551 158.8442 15.56258351282842
FENGYUN 3E              
1 49008U 21062A   26203.99886056 -.00000058  00000+0 -66953-5 0  9994
2 49008  98.7513 207.0090 0001833  26.2066 333.9203 14.19906308261666
ISS (NAUKA)             
1 49044U 21066A   26203.79832414  .00009714  00000+0  18351-3 0  9998
2 49044  51.6313 123.8641 0006897 326.7338  33.3216 15.49102905576674
STARLINK-3100           
1 49144U 21082Q   26202.75545770  .00000224  00000+0  26543-4 0  9998
2 49144  70.0008 316.4192 0003233 270.3549  89.7240 14.98332612266065
2021-091B               
1 49316U 21091B   26203.97033546  .00004913  00000+0  23968-3 0  9993
2 49316  97.4488  31.0047 0011476 277.0901  82.9028 15.18712101264418
SDGSAT 1                
1 49387U 21100A   26203.93011772  .00002456  00000+0  11943-3 0  9995
2 49387  97.2620 249.5117 0010667 138.6926 221.5118 15.19263979261341
TEIKYOSAT-4 (OORURI)    
1 49396U 21102B   26203.51751150  .00001197  00000+0  78140-4 0  9996
2 49396  97.3662 231.6273 0012438 163.6921 196.4712 15.09615983258053
Z-SAT                   
1 49399U 21102E   26203.91654390  .00004274  00000+0  20953-3 0  9998
2 49399  97.3316 238.1569 0018189 119.5631 240.7419 15.18503964258860
HIBARI                  
1 49400U 21102F   26203.86285992  .00012607  00000+0  40421-3 0  9994
2 49400  97.3219 249.3710 0013103  77.8348 282.4361 15.32397465259659
KOSEN-1                 
1 49402U 21102H   26203.91930080  .00008454  00000+0  31777-3 0  9996
2 49402  97.3173 245.3889 0015343  83.5565 276.7421 15.27296085259479
GLOBAL-14               
1 49469U 21106A   26203.36489403  .00027319  00000+0  44139-3 0  9997
2 49469  42.0040  81.7680 0018539 270.5008  89.3712 15.52090272263590
GAOFEN-3 02             
1 49495U 21109A   26203.98667443 -.00000049  00000+0 -15439-5 0  9995
2 49495  98.4104 211.5758 0001569 217.9792 142.1287 14.42210922245470
GLOBAL-12               
1 49772U 21115BA  26203.81590584  .00029990  00000+0  43444-3 0  9992
2 49772  53.1933 232.9447 0003060  81.3424 278.7935 15.55642964261442
GLOBAL-13               
1 49773U 21115BB  26203.72337517  .00019452  00000+0  38255-3 0  9994
2 49773  53.1961 245.4866 0000228  53.5734 306.5296 15.47309232261265
GLOBAL-17               
1 49949U 21120A   26203.00544594  .00027346  00000+0  41420-3 0  9990
2 49949  41.9930 201.5349 0014021 143.7702 216.4095 15.53958516260316
GLOBAL-16               
1 49950U 21120B   26203.71140386  .00024973  00000+0  41099-3 0  9996
2 49950  41.9931 201.7432 0011982 139.3866 220.7874 15.51731037260362
XW-3 (CAS-9)            
1 50466U 21131B   26203.94393036  .00000236  00000+0  86397-4 0  9996
2 50466  98.4980 296.1410 0004074   9.9533 350.1736 14.41385847240262
ION SCV-004             
1 50993U 22002K   26203.53743936  .00004984  00000+0  17013-3 0  9994
2 50993  97.2812 260.5347 0006264 215.1663 144.9166 15.30758195250705
ETV-A1                  
1 51060U 22002CE  26203.98707242  .00012772  00000+0  30792-3 0  9992
2 51060  97.2858 270.2021 0004722 193.6256 166.4864 15.41355399251350
BRO-5                   
1 51061U 22002CF  26203.92568647  .00015330  00000+0  28360-3 0  9992
2 51061  97.2974 277.9560 0006193 175.2305 184.9006 15.49108938251780
LUDI TANCE 1-01A (L-SA*)
1 51284U 22007A   26203.94586060  .00000537  00000+0  63825-4 0  9994
2 51284  97.8110 210.8589 0001622  90.9115 269.2288 14.88415687243791
LUDI TANCE 1-01B (L-SA*)
1 51822U 22018A   26203.97946115  .00000560  00000+0  66264-4 0  9994
2 51822  97.8115 210.8907 0001619  90.9323 269.2079 14.88420885239031
