OBJECT_NAME,OBJECT_ID,EPOCH,MEAN_MOTION,ECCENTRICITY,INCLINATION,RA_OF_ASC_NODE,ARG_OF_PERICENTER,MEAN_ANOMALY,EPHEMERIS_TYPE,CLASSIFICATION_TYPE,NORAD_CAT_ID,ELEMENT_SET_NO,REV_AT_EPOCH,BSTAR,MEAN_MOTION_DOT,MEAN_MOTION_DDOT
TYVAK-0173,2021-059P,2026-07-22T04:10:41.433024,14.81985503,.00071224,96.0066,270.8331,269.6597,90.3805,0,U,48892,999,27342,.15478557E-3,.1196E-4,0
MANDRAKE 2 ABLE,2021-059AE,2026-07-22T02:26:06.705600,15.56287480,.00043176,97.7034,35.5843,204.3486,155.7565,0,U,48907,999,28255,.33098399E-3,.23195E-3,0
MANDRAKE 2 BAKER,2021-059AF,2026-07-22T19:46:10.090560,15.61293578,.00034035,97.6996,39.4932,188.7404,171.3794,0,U,48908,999,28285,.37485699E-3,.31772E-3,0
PACE-1,2021-059AG,2026-07-22T02:34:36.413760,15.86629202,.00034417,97.6729,45.3679,166.6838,193.4524,0,U,48909,999,28332,.56002591E-3,.143209E-2,0
YAM-3,2021-059AN,2026-07-22T20:34:09.199488,15.49274712,.00044318,97.7000,33.1653,206.4019,153.7005,0,U,48915,999,28251,.23766857E-3,.12892E-3,0
FARADAY_PHOENIX,2021-059AX,2026-07-22T02:14:52.839168,15.89697728,.00055914,97.6756,45.2949,184.0763,176.0465,0,U,48924,999,28318,.11395198E-2,.333392E-2,.4303759E-4
DEMO8 (TENZING),2021-059CA,2026-07-22T19:29:41.140608,15.56258351,.00062988,97.7018,39.9787,201.2551,158.8442,0,U,48951,999,28284,.30509196E-3,.21354E-3,0
FENGYUN 3E,2021-062A,2026-07-22T23:58:21.552384,14.19906308,.0001833,98.7513,207.0090,26.2066,333.9203,0,U,49008,999,26166,-.6695298E-5,-.58E-6,0
ISS (NAUKA),2021-066A,2026-07-22T19:09:35.205696,15.49102905,.00068971,51.6313,123.8641,326.7338,33.3216,0,U,49044,999,57667,.18351277E-3,.9714E-4,0
STARLINK-3100,2021-082Q,2026-07-21T18:07:51.545280,14.98332612,.00032338,70.0008,316.4192,270.3549,89.7240,0,U,49144,999,26606,.26542861E-4,.224E-5,0
2021-091B,2021-091B,2026-07-22T23:17:16.983744,15.18712101,.00114767,97.4488,31.0047,277.0901,82.9028,0,U,49316,999,26441,.23967811E-3,.4913E-4,0
SDGSAT 1,2021-100A,2026-07-22T22:19:22.171008,15.19263979,.00106676,97.2620,249.5117,138.6926,221.5118,0,U,49387,999,26134,.11943337E-3,.2456E-4,0
TEIKYOSAT-4 (OORURI),2021-102B,2026-07-22T12:25:12.993600,15.09615983,.00124387,97.3662,231.6273,163.6921,196.4712,0,U,49396,999,25805,.78139753E-4,.1197E-4,0
Z-SAT,2021-102E,2026-07-22T21:59:49.392960,15.18503964,.00181896,97.3316,238.1569,119.5631,240.7419,0,U,49399,999,25886,.20953106E-3,.4274E-4,0
HIBARI,2021-102F,2026-07-22T20:42:31.097088,15.32397465,.00131036,97.3219,249.3710,77.8348,282.4361,0,U,49400,999,25965,.40421227E-3,.12607E-3,0
KOSEN-1,2021-102H,2026-07-22T22:03:47.589120,15.27296085,.00153435,97.3173,245.3889,83.5565,276.7421,0,U,49402,999,25947,.31777212E-3,.8454E-4,0
GLOBAL-14,2021-106A,2026-07-22T08:45:26.844192,15.52090272,.00185394,42.0040,81.7680,270.5008,89.3712,0,U,49469,999,26359,.44139014E-3,.27319E-3,0
GAOFEN-3 02,2021-109A,2026-07-22T23:40:48.670752,14.42210922,.00015694,98.4104,211.5758,217.9792,142.1287,0,U,49495,999,24547,-.154393E-5,-.49E-6,0
GLOBAL-12,2021-115BA,2026-07-22T19:34:54.264576,15.55642964,.000306,53.1933,232.9447,81.3424,278.7935,0,U,49772,999,26144,.43444019E-3,.2999E-3,0
GLOBAL-13,2021-115BB,2026-07-22T17:21:39.614688,15.47309232,.00002285,53.1961,245.4866,53.5734,306.5296,0,U,49773,999,26126,.38255161E-3,.19452E-3,0
GLOBAL-17,2021-120A,2026-07-22T00:07:50.529216,15.53958516,.0014021,41.9930,201.5349,143.7702,216.4095,0,U,49949,999,26031,.41419875E-3,.27346E-3,0
GLOBAL-16,2021-120B,2026-07-22T17:04:25.293504,15.51731037,.0011982,41.9931,201.7432,139.3866,220.7874,0,U,49950,999,26036,.41098539E-3,.24973E-3,0
XW-3 (CAS-9),2021-131B,2026-07-22T22:39:15.583104,14.41385847,.00040746,98.4980,296.1410,9.9533,350.1736,0,U,50466,999,24026,.86397289E-4,.236E-5,0
ION SCV-004,2022-002K,2026-07-22T12:53:54.760704,15.30758195,.00062641,97.2812,260.5347,215.1663,144.9166,0,U,50993,999,25070,.1701342E-3,.4984E-4,0
ETV-A1,2022-002CE,2026-07-22T23:41:23.057088,15.41355399,.00047228,97.2858,270.2021,193.6256,166.4864,0,U,51060,999,25135,.30791765E-3,.12772E-3,0
BRO-5,2022-002CF,2026-07-22T22:12:59.311008,15.49108938,.00061936,97.2974,277.9560,175.2305,184.9006,0,U,51061,999,25178,.28359757E-3,.1533E-3,0
LUDI TANCE 1-01A (L-SAR 01A),2022-007A,2026-07-22T22:42:02.355840,14.88415687,.00016228,97.8110,210.8589,90.9115,269.2288,0,U,51284,999,24379,.63825467E-4,.537E-5,0
LUDI TANCE 1-01B (L-SAR 01B),2022-018A,2026-07-22T23:30:25.443360,14.88420885,.00016194,97.8115,210.8907,90.9323,269.2079,0,U,51822,999,23903,.66264033E-4,.56E-5,0
